{
    "week": 289,
    "satellites": [
        {
            "Name": "COSMOS 2485 (747)",
            "Line1": "1 39155U 13019A   24294.03791937  .00000027  00000+0  00000+0 0  9994",
            "Line2": "2 39155  65.1007  93.9652 0022546 226.4157 133.3993  2.13101706 89384",
            "SatelliteNumber": "39155",
            "Classification": "U",
            "LaunchYear": "13",
            "LaunchNumber": "019",
            "PieceOfLaunch": "A",
            "EpochYear": "24",
            "EpochDay": 294.03791937,
            "FirstDerivativeMeanMotion": 2.7e-07,
            "SecondDerivativeMeanMotion": "00000+0",
            "BSTAR": "00000+0",
            "SetNumber": "999",
            "Inclination": 65.1007,
            "RAAN": 93.9652,
            "Eccentricity": 0.0022546,
            "ArgumentOfPerigee": 226.4157,
            "MeanAnomaly": 133.3993,
            "MeanMotion": 2.13101706,
            "RevolutionNumber": "8938"
        },
        {
            "Name": "COSMOS 2492 (754)",
            "Line1": "1 39620U 14012A   24292.58537511 -.00000048  00000+0  00000+0 0  9993",
            "Line2": "2 39620  65.6200 334.4767 0013222 308.5719  51.3798  2.13103074 82316",
            "SatelliteNumber": "39620",
            "Classification": "U",
            "LaunchYear": "14",
            "LaunchNumber": "012",
            "PieceOfLaunch": "A",
            "EpochYear": "24",
            "EpochDay": 292.58537511,
            "FirstDerivativeMeanMotion": -4.8e-07,
            "SecondDerivativeMeanMotion": "00000+0",
            "BSTAR": "00000+0",
            "SetNumber": "999",
            "Inclination": 65.62,
            "RAAN": 334.4767,
            "Eccentricity": 0.0013222,
            "ArgumentOfPerigee": 308.5719,
            "MeanAnomaly": 51.3798,
            "MeanMotion": 2.13103074,
            "RevolutionNumber": "8231"
        },
        {
            "Name": "COSMOS 2500 (755)",
            "Line1": "1 40001U 14032A   24293.23236915 -.00000052  00000+0  00000+0 0  9992",
            "Line2": "2 40001  65.5566 334.2503 0008983 213.4622 146.5483  2.13105835 80544",
            "SatelliteNumber": "40001",
            "Classification": "U",
            "LaunchYear": "14",
            "LaunchNumber": "032",
            "PieceOfLaunch": "A",
            "EpochYear": "24",
            "EpochDay": 293.23236915,
            "FirstDerivativeMeanMotion": -5.2e-07,
            "SecondDerivativeMeanMotion": "00000+0",
            "BSTAR": "00000+0",
            "SetNumber": "999",
            "Inclination": 65.5566,
            "RAAN": 334.2503,
            "Eccentricity": 0.0008983,
            "ArgumentOfPerigee": 213.4622,
            "MeanAnomaly": 146.5483,
            "MeanMotion": 2.13105835,
            "RevolutionNumber": "8054"
        },
        {
            "Name": "COSMOS 2501 (702K)",
            "Line1": "1 40315U 14075A   24292.54838726  .00000023  00000+0  00000+0 0  9995",
            "Line2": "2 40315  63.6184 211.3907 0019922 208.2125 151.7069  2.13101305 76928",
            "SatelliteNumber": "40315",
            "Classification": "U",
            "LaunchYear": "14",
            "LaunchNumber": "075",
            "PieceOfLaunch": "A",
            "EpochYear": "24",
            "EpochDay": 292.54838726,
            "FirstDerivativeMeanMotion": 2.3e-07,
            "SecondDerivativeMeanMotion": "00000+0",
            "BSTAR": "00000+0",
            "SetNumber": "999",
            "Inclination": 63.6184,
            "RAAN": 211.3907,
            "Eccentricity": 0.0019922,
            "ArgumentOfPerigee": 208.2125,
            "MeanAnomaly": 151.7069,
            "MeanMotion": 2.13101305,
            "RevolutionNumber": "7692"
        },
        {
            "Name": "COSMOS 2514 (751)",
            "Line1": "1 41330U 16008A   24293.93905629 -.00000056  00000+0  00000+0 0  9999",
            "Line2": "2 41330  65.3501 333.7041 0013047 216.8310 143.1435  2.13102510 67728",
            "SatelliteNumber": "41330",
            "Classification": "U",
            "LaunchYear": "16",
            "LaunchNumber": "008",
            "PieceOfLaunch": "A",
            "EpochYear": "24",
            "EpochDay": 293.93905629,
            "FirstDerivativeMeanMotion": -5.6e-07,
            "SecondDerivativeMeanMotion": "00000+0",
            "BSTAR": "00000+0",
            "SetNumber": "999",
            "Inclination": 65.3501,
            "RAAN": 333.7041,
            "Eccentricity": 0.0013047,
            "ArgumentOfPerigee": 216.831,
            "MeanAnomaly": 143.1435,
            "MeanMotion": 2.1310251,
            "RevolutionNumber": "6772"
        },
        {
            "Name": "COSMOS 2522 (752)",
            "Line1": "1 42939U 17055A   24294.24813123  .00000020  00000+0  00000+0 0  9990",
            "Line2": "2 42939  64.0795 212.4942 0007951 237.9649 121.9902  2.13101914 55080",
            "SatelliteNumber": "42939",
            "Classification": "U",
            "LaunchYear": "17",
            "LaunchNumber": "055",
            "PieceOfLaunch": "A",
            "EpochYear": "24",
            "EpochDay": 294.24813123,
            "FirstDerivativeMeanMotion": 2e-07,
            "SecondDerivativeMeanMotion": "00000+0",
            "BSTAR": "00000+0",
            "SetNumber": "999",
            "Inclination": 64.0795,
            "RAAN": 212.4942,
            "Eccentricity": 0.0007951,
            "ArgumentOfPerigee": 237.9649,
            "MeanAnomaly": 121.9902,
            "MeanMotion": 2.13101914,
            "RevolutionNumber": "5508"
        },
        {
            "Name": "COSMOS 2527 (756)",
            "Line1": "1 43508U 18053A   24294.20753887  .00000028  00000+0  00000+0 0  9996",
            "Line2": "2 43508  65.2605  94.1373 0007745 213.8565 146.0962  2.13102250 49384",
            "SatelliteNumber": "43508",
            "Classification": "U",
            "LaunchYear": "18",
            "LaunchNumber": "053",
            "PieceOfLaunch": "A",
            "EpochYear": "24",
            "EpochDay": 294.20753887,
            "FirstDerivativeMeanMotion": 2.8e-07,
            "SecondDerivativeMeanMotion": "00000+0",
            "BSTAR": "00000+0",
            "SetNumber": "999",
            "Inclination": 65.2605,
            "RAAN": 94.1373,
            "Eccentricity": 0.0007745,
            "ArgumentOfPerigee": 213.8565,
            "MeanAnomaly": 146.0962,
            "MeanMotion": 2.1310225,
            "RevolutionNumber": "4938"
        },
        {
            "Name": "COSMOS 2529 (757)",
            "Line1": "1 43687U 18086A   24294.30622350  .00000020  00000+0  00000+0 0  9993",
            "Line2": "2 43687  64.2952 213.0385 0009323 260.7966  99.1294  2.13101935 46394",
            "SatelliteNumber": "43687",
            "Classification": "U",
            "LaunchYear": "18",
            "LaunchNumber": "086",
            "PieceOfLaunch": "A",
            "EpochYear": "24",
            "EpochDay": 294.3062235,
            "FirstDerivativeMeanMotion": 2e-07,
            "SecondDerivativeMeanMotion": "00000+0",
            "BSTAR": "00000+0",
            "SetNumber": "999",
            "Inclination": 64.2952,
            "RAAN": 213.0385,
            "Eccentricity": 0.0009323,
            "ArgumentOfPerigee": 260.7966,
            "MeanAnomaly": 99.1294,
            "MeanMotion": 2.13101935,
            "RevolutionNumber": "4639"
        },
        {
            "Name": "COSMOS 2534 (758)",
            "Line1": "1 44299U 19030A   24294.25985470  .00000021  00000+0  00000+0 0  9993",
            "Line2": "2 44299  64.3685 213.0053 0011415 283.2941 175.2939  2.13101863 42037",
            "SatelliteNumber": "44299",
            "Classification": "U",
            "LaunchYear": "19",
            "LaunchNumber": "030",
            "PieceOfLaunch": "A",
            "EpochYear": "24",
            "EpochDay": 294.2598547,
            "FirstDerivativeMeanMotion": 2.1e-07,
            "SecondDerivativeMeanMotion": "00000+0",
            "BSTAR": "00000+0",
            "SetNumber": "999",
            "Inclination": 64.3685,
            "RAAN": 213.0053,
            "Eccentricity": 0.0011415,
            "ArgumentOfPerigee": 283.2941,
            "MeanAnomaly": 175.2939,
            "MeanMotion": 2.13101863,
            "RevolutionNumber": "4203"
        },
        {
            "Name": "COSMOS 2544 (759)",
            "Line1": "1 44850U 19088A   24294.62095012  .00000028  00000+0  00000+0 0  9991",
            "Line2": "2 44850  65.2474  93.9582 0011748 246.4863 113.3918  2.13102017 37813",
            "SatelliteNumber": "44850",
            "Classification": "U",
            "LaunchYear": "19",
            "LaunchNumber": "088",
            "PieceOfLaunch": "A",
            "EpochYear": "24",
            "EpochDay": 294.62095012,
            "FirstDerivativeMeanMotion": 2.8e-07,
            "SecondDerivativeMeanMotion": "00000+0",
            "BSTAR": "00000+0",
            "SetNumber": "999",
            "Inclination": 65.2474,
            "RAAN": 93.9582,
            "Eccentricity": 0.0011748,
            "ArgumentOfPerigee": 246.4863,
            "MeanAnomaly": 113.3918,
            "MeanMotion": 2.13102017,
            "RevolutionNumber": "3781"
        }
    ]
}